{"type": "FeatureCollection", "features": [ {"type": "Feature", "properties": {"norad_id": 30396, "name": "FENGYUN 1C DEB", "group": "fengyun-1c-debris", "lat": 22.26955803361976, "lon": 171.27662772949847, "alt_km": 843.3314712650517, "timestamp": "2025-12-08T13:49:32.068863+00:00", "meta": {"OBJECT_NAME": "FENGYUN 1C DEB", "OBJECT_ID": "1999-025ADK", "EPOCH": "2025-12-08T06:13:52.598784", "MEAN_MOTION": 13.87166848, "ECCENTRICITY": 0.01348516, "INCLINATION": 98.224, "RA_OF_ASC_NODE": 347.6028, "ARG_OF_PERICENTER": 142.0413, "MEAN_ANOMALY": 235.6053, "EPHEMERIS_TYPE": 0, "CLASSIFICATION_TYPE": "U", "NORAD_CAT_ID": 30396, "ELEMENT_SET_NO": 999, "REV_AT_EPOCH": 95517, "BSTAR": 0.00017941406, "MEAN_MOTION_DOT": 1.91e-06, "MEAN_MOTION_DDOT": 0}, "tle": {"line1": "1 30396U 99025ADK 25342.25963656  .00000191  00000+0  17941-3 0  9999", "line2": "2 30396  98.2240 347.6028 0134851 142.0413 235.6053 13.87166848955178"}}, "geometry": {"type": "Point", "coordinates": [171.27662772949847, 22.26955803361976]}}, {"type": "Feature", "properties": {"norad_id": 30397, "name": "FENGYUN 1C DEB", "group": "fengyun-1c-debris", "lat": -52.46310293800378, "lon": -59.97249601839273, "alt_km": 973.2172853764832, "timestamp": "2025-12-08T13:49:32.068873+00:00", "meta": {"OBJECT_NAME": "FENGYUN 1C DEB", "OBJECT_ID": "1999-025ADL", "EPOCH": "2025-12-08T07:53:20.044608", "MEAN_MOTION": 13.9856681, "ECCENTRICITY": 0.01497061, "INCLINATION": 98.4063, "RA_OF_ASC_NODE": 130.8966, "ARG_OF_PERICENTER": 104.9317, "MEAN_ANOMALY": 322.1999, "EPHEMERIS_TYPE": 0, "CLASSIFICATION_TYPE": "U", "NORAD_CAT_ID": 30397, "ELEMENT_SET_NO": 999, "REV_AT_EPOCH": 95703, "BSTAR": 0.0016480921, "MEAN_MOTION_DOT": 2.564e-05, "MEAN_MOTION_DDOT": 0}, "tle": {"line1": "1 30397U 99025ADL 25342.32870422  .00002564  00000+0  16481-2 0  9999", "line2": "2 30397  98.4063 130.8966 0149706 104.9317 322.1999 13.98566810957035"}}, "geometry": {"type": "Point", "coordinates": [-59.97249601839273, -52.46310293800378]}}, {"type": "Feature", "properties": {"norad_id": 30398, "name": "FENGYUN 1C DEB", "group": "fengyun-1c-debris", "lat": -42.98309465140703, "lon": 49.8099952161435, "alt_km": 957.9583648156004, "timestamp": "2025-12-08T13:49:32.068883+00:00", "meta": {"OBJECT_NAME": "FENGYUN 1C DEB", "OBJECT_ID": "1999-025ADM", "EPOCH": "2025-12-07T15:57:59.349600", "MEAN_MOTION": 13.78689469, "ECCENTRICITY": 0.01730205, "INCLINATION": 99.7142, "RA_OF_ASC_NODE": 238.0631, "ARG_OF_PERICENTER": 309.2985, "MEAN_ANOMALY": 78.1809, "EPHEMERIS_TYPE": 0, "CLASSIFICATION_TYPE": "U", "NORAD_CAT_ID": 30398, "ELEMENT_SET_NO": 999, "REV_AT_EPOCH": 94687, "BSTAR": 0.00088016631, "MEAN_MOTION_DOT": 9.51e-06, "MEAN_MOTION_DDOT": 0}, "tle": {"line1": "1 30398U 99025ADM 25341.66527025  .00000951  00000+0  88017-3 0  9997", "line2": "2 30398  99.7142 238.0631 0173020 309.2985  78.1809 13.78689469946877"}}, "geometry": {"type": "Point", "coordinates": [49.8099952161435, -42.98309465140703]}}, {"type": "Feature", "properties": {"norad_id": 30400, "name": "FENGYUN 1C DEB", "group": "fengyun-1c-debris", "lat": -57.1374150708168, "lon": -75.52037230763172, "alt_km": 749.6153346213014, "timestamp": "2025-12-08T13:49:32.068893+00:00", "meta": {"OBJECT_NAME": "FENGYUN 1C DEB", "OBJECT_ID": "1999-025ADP", "EPOCH": "2025-12-08T07:50:43.519776", "MEAN_MOTION": 14.09839617, "ECCENTRICITY": 0.02278529, "INCLINATION": 99.1568, "RA_OF_ASC_NODE": 269.7675, "ARG_OF_PERICENTER": 348.052, "MEAN_ANOMALY": 131.592, "EPHEMERIS_TYPE": 0, "CLASSIFICATION_TYPE": "U", "NORAD_CAT_ID": 30400, "ELEMENT_SET_NO": 999, "REV_AT_EPOCH": 95452, "BSTAR": 0.0059510634, "MEAN_MOTION_DOT": 0.00013297, "MEAN_MOTION_DDOT": 0}, "tle": {"line1": "1 30400U 99025ADP 25342.32689259  .00013297  00000+0  59511-2 0  9996", "line2": "2 30400  99.1568 269.7675 0227852 348.0520 131.5920 14.09839617954521"}}, "geometry": {"type": "Point", "coordinates": [-75.52037230763172, -57.1374150708168]}}, {"type": "Feature", "properties": {"norad_id": 30401, "name": "FENGYUN 1C DEB", "group": "fengyun-1c-debris", "lat": 53.33592359740423, "lon": -152.85506024887104, "alt_km": 786.0113839040723, "timestamp": "2025-12-08T13:49:32.068904+00:00", "meta": {"OBJECT_NAME": "FENGYUN 1C DEB", "OBJECT_ID": "1999-025ADQ", "EPOCH": "2025-12-08T05:09:43.119360", "MEAN_MOTION": 14.27986532, "ECCENTRICITY": 0.01076853, "INCLINATION": 98.9473, "RA_OF_ASC_NODE": 218.9935, "ARG_OF_PERICENTER": 140.5245, "MEAN_ANOMALY": 220.3843, "EPHEMERIS_TYPE": 0, "CLASSIFICATION_TYPE": "U", "NORAD_CAT_ID": 30401, "ELEMENT_SET_NO": 999, "REV_AT_EPOCH": 98239, "BSTAR": 0.00026257326, "MEAN_MOTION_DOT": 6.47e-06, "MEAN_MOTION_DDOT": 0}, "tle": {"line1": "1 30401U 99025ADQ 25342.21508240  .00000647  00000+0  26257-3 0  9992", "line2": "2 30401  98.9473 218.9935 0107685 140.5245 220.3843 14.27986532982395"}}, "geometry": {"type": "Point", "coordinates": [-152.85506024887104, 53.33592359740423]}}, {"type": "Feature", "properties": {"norad_id": 30403, "name": "FENGYUN 1C DEB", "group": "fengyun-1c-debris", "lat": -36.86818963816929, "lon": 67.76414955307278, "alt_km": 810.0813663753743, "timestamp": "2025-12-08T13:49:32.068914+00:00", "meta": {"OBJECT_NAME": "FENGYUN 1C DEB", "OBJECT_ID": "1999-025ADS", "EPOCH": "2025-12-08T03:51:49.701024", "MEAN_MOTION": 14.21475934, "ECCENTRICITY": 0.00749551, "INCLINATION": 99.0594, "RA_OF_ASC_NODE": 60.4662, "ARG_OF_PERICENTER": 36.4053, "MEAN_ANOMALY": 324.2188, "EPHEMERIS_TYPE": 0, "CLASSIFICATION_TYPE": "U", "NORAD_CAT_ID": 30403, "ELEMENT_SET_NO": 999, "REV_AT_EPOCH": 96741, "BSTAR": 0.0024572195, "MEAN_MOTION_DOT": 5.488e-05, "MEAN_MOTION_DDOT": 0}, "tle": {"line1": "1 30403U 99025ADS 25342.16099191  .00005488  00000+0  24572-2 0  9993", "line2": "2 30403  99.0594  60.4662 0074955  36.4053 324.2188 14.21475934967418"}}, "geometry": {"type": "Point", "coordinates": [67.76414955307278, -36.86818963816929]}}, {"type": "Feature", "properties": {"norad_id": 30404, "name": "FENGYUN 1C DEB", "group": "fengyun-1c-debris", "lat": -73.77435482805801, "lon": -142.07754474580483, "alt_km": 1227.067680268976, "timestamp": "2025-12-08T13:49:32.068924+00:00", "meta": {"OBJECT_NAME": "FENGYUN 1C DEB", "OBJECT_ID": "1999-025ADT", "EPOCH": "2025-11-30T17:24:43.426368", "MEAN_MOTION": 13.34313011, "ECCENTRICITY": 0.03760074, "INCLINATION": 99.8332, "RA_OF_ASC_NODE": 66.9455, "ARG_OF_PERICENTER": 165.4409, "MEAN_ANOMALY": 195.791, "EPHEMERIS_TYPE": 0, "CLASSIFICATION_TYPE": "U", "NORAD_CAT_ID": 30404, "ELEMENT_SET_NO": 999, "REV_AT_EPOCH": 57876, "BSTAR": 0.0014039979, "MEAN_MOTION_DOT": 1.003e-05, "MEAN_MOTION_DDOT": 0}, "tle": {"line1": "1 30404U 99025ADT 25334.72550262  .00001003  00000+0  14040-2 0  9996", "line2": "2 30404  99.8332  66.9455 0376007 165.4409 195.7910 13.34313011578769"}}, "geometry": {"type": "Point", "coordinates": [-142.07754474580483, -73.77435482805801]}}, {"type": "Feature", "properties": {"norad_id": 30405, "name": "FENGYUN 1C DEB", "group": "fengyun-1c-debris", "lat": 29.325308816502364, "lon": 71.5378857758773, "alt_km": 820.4844394017782, "timestamp": "2025-12-08T13:49:32.068935+00:00", "meta": {"OBJECT_NAME": "FENGYUN 1C DEB", "OBJECT_ID": "1999-025ADU", "EPOCH": "2025-12-08T05:26:13.539840", "MEAN_MOTION": 14.28855607, "ECCENTRICITY": 0.00515563, "INCLINATION": 98.7944, "RA_OF_ASC_NODE": 76.1745, "ARG_OF_PERICENTER": 166.6025, "MEAN_ANOMALY": 226.7443, "EPHEMERIS_TYPE": 0, "CLASSIFICATION_TYPE": "U", "NORAD_CAT_ID": 30405, "ELEMENT_SET_NO": 999, "REV_AT_EPOCH": 97331, "BSTAR": 0.0025417035, "MEAN_MOTION_DOT": 6.464e-05, "MEAN_MOTION_DDOT": 0}, "tle": {"line1": "1 30405U 99025ADU 25342.22654560  .00006464  00000+0  25417-2 0  9993", "line2": "2 30405  98.7944  76.1745 0051556 166.6025 226.7443 14.28855607973310"}}, "geometry": {"type": "Point", "coordinates": [71.5378857758773, 29.325308816502364]}}, {"type": "Feature", "properties": {"norad_id": 30406, "name": "FENGYUN 1C DEB", "group": "fengyun-1c-debris", "lat": -46.578436691273644, "lon": -117.04246334388147, "alt_km": 929.2051246436686, "timestamp": "2025-12-08T13:49:32.068945+00:00", "meta": {"OBJECT_NAME": "FENGYUN 1C DEB", "OBJECT_ID": "1999-025ADV", "EPOCH": "2025-12-08T04:11:38.478624", "MEAN_MOTION": 13.59184095, "ECCENTRICITY": 0.02830699, "INCLINATION": 98.6203, "RA_OF_ASC_NODE": 233.3805, "ARG_OF_PERICENTER": 11.6347, "MEAN_ANOMALY": 141.2755, "EPHEMERIS_TYPE": 0, "CLASSIFICATION_TYPE": "U", "NORAD_CAT_ID": 30406, "ELEMENT_SET_NO": 999, "REV_AT_EPOCH": 93104, "BSTAR": 0.0030375146, "MEAN_MOTION_DOT": 2.874e-05, "MEAN_MOTION_DDOT": 0}, "tle": {"line1": "1 30406U 99025ADV 25342.17475091  .00002874  00000+0  30375-2 0  9998", "line2": "2 30406  98.6203 233.3805 0283069  11.6347 141.2755 13.59184095931044"}}, "geometry": {"type": "Point", "coordinates": [-117.04246334388147, -46.578436691273644]}}, {"type": "Feature", "properties": {"norad_id": 30409, "name": "FENGYUN 1C DEB", "group": "fengyun-1c-debris", "lat": 65.73592950540403, "lon": 169.55084517953324, "alt_km": 884.1312419536516, "timestamp": "2025-12-08T13:49:32.068955+00:00", "meta": {"OBJECT_NAME": "FENGYUN 1C DEB", "OBJECT_ID": "1999-025ADY", "EPOCH": "2025-12-07T10:39:05.341248", "MEAN_MOTION": 14.03706793, "ECCENTRICITY": 0.0168143, "INCLINATION": 98.4725, "RA_OF_ASC_NODE": 329.1855, "ARG_OF_PERICENTER": 20.5036, "MEAN_ANOMALY": 131.8722, "EPHEMERIS_TYPE": 0, "CLASSIFICATION_TYPE": "U", "NORAD_CAT_ID": 30409, "ELEMENT_SET_NO": 999, "REV_AT_EPOCH": 96355, "BSTAR": 0.0015126482, "MEAN_MOTION_DOT": 2.657e-05, "MEAN_MOTION_DDOT": 0}, "tle": {"line1": "1 30409U 99025ADY 25341.44381182  .00002657  00000+0  15126-2 0  9993", "line2": "2 30409  98.4725 329.1855 0168143  20.5036 131.8722 14.03706793963557"}}, "geometry": {"type": "Point", "coordinates": [169.55084517953324, 65.73592950540403]}}]}